[{"OBJECT_NAME":"STARLINK-34660","OBJECT_ID":"2025-150L","EPOCH":"2026-03-09T12:35:02.910336","MEAN_MOTION":14.98329869,"ECCENTRICITY":0.00037555,"INCLINATION":70.0018,"RA_OF_ASC_NODE":134.8122,"ARG_OF_PERICENTER":270.2484,"MEAN_ANOMALY":89.8244,"EPHEMERIS_TYPE":0,"CLASSIFICATION_TYPE":"U","NORAD_CAT_ID":64800,"ELEMENT_SET_NO":999,"REV_AT_EPOCH":3649,"BSTAR":7.3251248e-5,"MEAN_MOTION_DOT":7.81e-6,"MEAN_MOTION_DDOT":0},{"OBJECT_NAME":"DEORBITSAIL","OBJECT_ID":"2015-032E","EPOCH":"2026-03-09T13:39:47.460384","MEAN_MOTION":15.02284863,"ECCENTRICITY":0.0012066,"INCLINATION":97.5981,"RA_OF_ASC_NODE":287.3228,"ARG_OF_PERICENTER":211.0438,"MEAN_ANOMALY":149.0075,"EPHEMERIS_TYPE":0,"CLASSIFICATION_TYPE":"U","NORAD_CAT_ID":40719,"ELEMENT_SET_NO":999,"REV_AT_EPOCH":57628,"BSTAR":0.0007398,"MEAN_MOTION_DOT":9.73e-5,"MEAN_MOTION_DDOT":0}]
